ONEWEB-0273             
1 48991U 21060AA  23352.70710859  .00000067  00000+0  14038-3 0  9993
2 48991  87.9079  50.1880 0001859 110.5169 249.6161 13.16595321119658
ONEWEB-0274             
1 48992U 21060AB  23352.73243584 -.00000027  00000+0 -10385-3 0  9992
2 48992  87.9078  50.1866 0001159 104.0119 256.1141 13.16592286119690
ONEWEB-0275             
1 48993U 21060AC  23352.72190922 -.00000072  00000+0 -22310-3 0  9990
2 48993  87.9071  50.1849 0001751 104.2919 255.8406 13.16592293119624
ONEWEB-0276             
1 48994U 21060AD  23352.67966058  .00000084  00000+0  18552-3 0  9990
2 48994  87.9076  50.1865 0001926 114.7181 245.4151 13.16598323120937
ONEWEB-0277             
1 48995U 21060AE  23352.61632899  .00000084  00000+0  18676-3 0  9995
2 48995  87.9077  50.2383 0001763 123.7134 236.4165 13.16595432119618
ONEWEB-0278             
1 48996U 21060AF  23352.68177900  .00000020  00000+0  19139-4 0  9996
2 48996  87.9078  50.1827 0002152 100.0555 260.0818 13.16593217119752
ONEWEB-0279             
1 48997U 21060AG  23352.61422846  .00000102  00000+0  23288-3 0  9992
2 48997  87.9078  50.1947 0001778 103.9028 256.2300 13.16592565119675
ONEWEB-0280             
1 48998U 21060AH  23353.16097810  .00000161  00000+0  38654-3 0  9991
2 48998  87.9080  50.0855 0001627 128.9906 231.1370 13.16593885120971
